OBJECT_NAME,OBJECT_ID,EPOCH,MEAN_MOTION,ECCENTRICITY,INCLINATION,RA_OF_ASC_NODE,ARG_OF_PERICENTER,MEAN_ANOMALY,EPHEMERIS_TYPE,CLASSIFICATION_TYPE,NORAD_CAT_ID,ELEMENT_SET_NO,REV_AT_EPOCH,BSTAR,MEAN_MOTION_DOT,MEAN_MOTION_DDOT
OSCAR 7 (AO-7),1974-089B,2026-06-13T13:33:45.364896,12.53698067,.00125332,101.9901,177.7740,136.8418,343.3744,0,U,7530,999,36006,.12808824E-3,-.26E-6,0
PHASE 3B (AO-10),1983-058B,2026-06-13T11:38:15.572544,2.05869395,.60121148,25.9094,220.1781,114.6492,317.6358,0,U,14129,999,29541,0,.72E-6,0
UOSAT 2 (UO-11),1984-021B,2026-06-13T11:06:11.422080,14.90774931,.00072831,97.8057,130.0790,185.1470,174.9674,0,U,14781,999,25657,.13240254E-3,.1246E-4,0
LUSAT (LO-19),1990-005G,2026-06-13T14:58:12.639360,14.34122217,.00109249,98.8851,186.3311,212.0527,147.9994,0,U,20442,999,90188,.56806634E-4,.112E-5,0
EYESAT A (AO-27),1993-061C,2026-06-13T10:24:36.614304,14.30941283,.00095012,98.6880,231.8486,109.3643,250.8567,0,U,22825,999,70646,.50711107E-4,.89E-6,0
ITAMSAT (IO-26),1993-061D,2026-06-13T03:13:56.091072,14.31367991,.00100809,98.6828,231.4666,95.5594,264.6739,0,U,22826,999,70673,.4968059E-4,.87E-6,0
RADIO ROSTO (RS15),1994-085A,2026-06-13T15:46:14.011104,11.27583530,.01558425,64.8180,308.9254,4.5284,355.7010,0,U,23439,999,29550,-.19303372E-3,-.49E-6,0
JAS-2 (FO-29),1996-046B,2026-06-13T12:58:14.847168,13.53274092,.03508593,98.5242,13.9122,105.8707,258.1395,0,U,24278,999,47267,.52057997E-4,.19E-6,0
TECHSAT 1B (GO-32),1998-043D,2026-06-13T13:15:13.476384,14.24427810,.00008612,99.0066,157.2191,170.7253,189.3941,0,U,25397,999,45081,.45457571E-4,.58E-6,0
ISS (ZARYA),1998-067A,2026-06-13T12:18:17.509824,15.49208508,.00049187,51.6334,318.2790,181.0364,179.0615,0,U,25544,999,57118,.1626315E-3,.8586E-4,0
PCSAT (NO-44),2001-043C,2026-06-13T14:19:57.989280,14.31954950,.00060906,67.0507,253.5571,264.5230,95.5177,0,U,26931,999,28993,.70446171E-4,.106E-5,0
SAUDISAT 1C (SO-50),2002-058C,2026-06-13T07:28:46.158240,14.83039133,.00753399,64.5508,140.9762,263.1926,96.0604,0,U,27607,999,26388,.1308805E-3,.964E-5,0
CUTE-1 (CO-55),2003-031E,2026-06-13T14:16:49.779840,14.24333733,.0009255,98.6734,173.1988,188.5198,171.5825,0,U,27844,999,19116,.13835812E-3,.276E-5,0
CUBESAT XI-IV (CO-57),2003-031J,2026-06-13T13:57:36.858240,14.23619125,.00087926,98.6767,172.9014,208.1063,151.9642,0,U,27848,999,19086,.1219905E-3,.234E-5,0
MOZHAETS 4 (RS22),2003-042A,2026-06-13T16:22:15.173184,14.73460546,.00099761,98.3467,348.9424,282.2178,145.3988,0,U,27939,999,21503,.10789192E-3,.647E-5,0
CUBESAT XI-V,2005-043F,2026-06-13T09:27:00.601344,14.72622172,.0013416,98.2979,319.9359,213.2696,146.7669,0,U,28895,999,10119,.21486221E-3,.1317E-4,0
CUTE-1.7+APD II (CO-65),2008-021C,2026-06-13T14:27:57.983616,15.09422616,.00102137,97.8270,145.9466,50.2364,309.9762,0,U,32785,999,98465,.31764743E-3,.5019E-4,0
SEEDS II (CO-66),2008-021J,2026-06-13T13:04:32.511072,15.32635476,.00016064,97.7510,162.2685,15.7842,344.3449,0,U,32791,999,98673,.59804436E-3,.1879E-3,0
YUBILEINY (RS30),2008-025A,2026-06-13T15:18:35.148384,12.43179213,.0019,82.5046,357.6492,321.9358,38.0378,0,U,32953,999,81925,.33046531E-3,.56E-6,0
KKS-1 (KISEKI),2009-002H,2026-06-13T13:06:09.992736,14.83115782,.00067145,98.1193,86.9304,309.9672,50.0950,0,U,33499,999,93565,.16384742E-3,.128E-4,0
SWISSCUBE,2009-051B,2026-06-13T13:01:14.659392,14.62475506,.00057468,98.4040,72.3672,215.9144,144.1671,0,U,35932,999,88862,.19529538E-3,.94E-5,0
BEESAT-1,2009-051C,2026-06-13T06:37:48.676512,14.61714735,.0004035,98.3969,71.7400,232.2675,127.8160,0,U,35933,999,88861,.16281462E-3,.762E-5,0
ITUPSAT1,2009-051E,2026-06-13T11:15:44.395776,14.60435688,.00061507,98.4053,71.1320,247.8534,112.2013,0,U,35935,999,88819,.15645041E-3,.709E-5,0
XIWANG-1 (HOPE-1),2009-072B,2026-06-13T14:18:07.741152,13.16440406,.00068357,100.4020,118.4849,240.2690,119.7743,0,U,36122,999,79253,.51196069E-3,.151E-5,0
O/OREOS (USA 219),2010-062C,2026-06-13T12:18:26.532576,14.93730342,.00124465,71.9712,88.6621,71.0811,289.1707,0,U,37224,999,11609,.22655263E-3,.2341E-4,0
JUGNU,2011-058B,2026-06-13T03:39:07.107840,14.13775702,.00186016,19.9620,332.9425,31.8631,131.2795,0,U,37839,999,75845,.70847304E-4,.403E-5,0
SRMSAT,2011-058D,2026-06-13T11:49:26.315616,14.11574841,.00118721,19.9718,81.8294,162.9750,353.0513,0,U,37841,999,75729,.51405851E-4,.36E-5,0
STRAND-1,2013-009E,2026-06-13T05:26:36.173184,14.37161166,.0007559,98.3921,344.5588,238.7120,121.3328,0,U,39090,999,69649,.10267E-3,.263E-5,0
ZACUBE-1 (TSHEPISOSAT),2013-066B,2026-06-13T11:23:24.924192,15.01168647,.00404078,97.8083,126.7913,260.6547,99.0106,0,U,39417,999,68017,.27607235E-3,.3536E-4,0
GOMX-1,2013-066Q,2026-06-13T08:56:43.039968,14.69446045,.01301987,97.6489,5.0768,89.6712,271.9413,0,U,39430,999,66935,.25371615E-3,.1661E-4,0
